{
  "norad_id": 68353,
  "name": "CENTISPACE-1 OBJECT D",
  "history": [
    {
      "epoch": "2026-03-28T01:23:09.602592Z",
      "apogee_km": 653.4446059787415,
      "perigee_km": 635.9100431731404,
      "latitude_deg": 1.5915364495112687e-05,
      "longitude_deg": 160.41984366424336,
      "height_km": 639.9444303275644,
      "semi_major_axis_km": 7022.814324575941,
      "eccentricity": 0.0012484,
      "inclination_deg": 54.9867,
      "raan_deg": 6.6935,
      "arg_perigee_deg": 311.4708,
      "mean_anomaly_deg": 48.5219,
      "mean_motion_rev_day": 14.75149317
    }
  ]
}